QIANFAN-33              
1 61566U 24185Q   25330.78315059  .00000503  00000+0  35382-3 0  9996
2 61566  88.9798  80.5835 0007448  32.3149 327.8482 13.96533792 66935
QIANFAN-34              
1 61567U 24185R   25330.81398196  .00000606  00000+0  38663-3 0  9993
2 61567  88.9776  80.1650 0006619  39.9014 320.2652 14.02285091 67128
QIANFAN-35              
1 61568U 24185S   25330.79030487  .00001000  00000+0  39818-3 0  9999
2 61568  88.9802  78.7484 0005808 357.2941   2.8221 14.27925790 67906
QIANFAN-36              
1 61569U 24185T   25330.79803772  .00000183  00000+0  24520-3 0  9990
2 61569  88.9781  82.7022 0007787  92.5355 267.6690 13.55580420 65762
QIANFAN-37              
1 62238U 24232B   25330.77236007  .00000176  00000+0  25354-3 0  9994
2 62238  89.0035  42.9394 0002549 116.4999 243.6414 13.50987189 97010
QIANFAN-38              
1 62239U 24232C   25330.79704313  .00000180  00000+0  26013-3 0  9995
2 62239  89.0041  42.8516 0013259 235.4039 124.5862 13.50976476 97077
QIANFAN-39              
1 62240U 24232D   25330.76865542  .00000701  00000+0  29088-3 0  9990
2 62240  89.0032  39.1343 0018200 127.6134 232.6714 14.25369149 99115
QIANFAN-40              
1 62241U 24232E   25330.82995554  .00000184  00000+0  26597-3 0  9992
2 62241  89.0068  42.4284 0012096 243.5946 116.3964 13.50976092 97449
